AL MUNTHER              
1 63240U 25052AG  26068.64540749  .00017933  00000+0  65015-3 0  9992
2 63240  97.4001 323.9152 0008027 130.7043 229.4895 15.28381521 54798
STARLINK-34531          
1 64750U 25144AC  26068.62734710 -.00034690  00000+0 -11666-2 0  9995
2 64750  53.1607 181.2366 0002417  48.4635 311.6573 15.30140586 39705
